{"type": "FeatureCollection", "features": [ {"type": "Feature", "properties": {"norad_id": 34432, "name": "COSMOS 2251 DEB", "group": "cosmos-2251-debris", "lat": -13.759595599305932, "lon": 101.83329208464001, "alt_km": 1009.6617916195155, "timestamp": "2025-12-10T16:57:12.033238+00:00", "meta": {"OBJECT_NAME": "COSMOS 2251 DEB", "OBJECT_ID": "1993-036RZ", "EPOCH": "2025-12-09T19:30:43.256160", "MEAN_MOTION": 14.02887918, "ECCENTRICITY": 0.01827555, "INCLINATION": 73.8286, "RA_OF_ASC_NODE": 107.4812, "ARG_OF_PERICENTER": 190.6056, "MEAN_ANOMALY": 324.0899, "EPHEMERIS_TYPE": 0, "CLASSIFICATION_TYPE": "U", "NORAD_CAT_ID": 34432, "ELEMENT_SET_NO": 999, "REV_AT_EPOCH": 85643, "BSTAR": 0.0021957178, "MEAN_MOTION_DOT": 3.918e-05, "MEAN_MOTION_DDOT": 0}, "tle": {"line1": "1 34432U 93036RZ  25343.81300065  .00003918  00000+0  21957-2 0  9993", "line2": "2 34432  73.8286 107.4812 0182755 190.6056 324.0899 14.02887918856439"}}, "geometry": {"type": "Point", "coordinates": [101.83329208464001, -13.759595599305932]}}, {"type": "Feature", "properties": {"norad_id": 34433, "name": "COSMOS 2251 DEB", "group": "cosmos-2251-debris", "lat": -59.48155772327157, "lon": 129.44077804065526, "alt_km": 746.634413810958, "timestamp": "2025-12-10T16:57:12.033247+00:00", "meta": {"OBJECT_NAME": "COSMOS 2251 DEB", "OBJECT_ID": "1993-036SA", "EPOCH": "2025-12-08T22:45:44.652672", "MEAN_MOTION": 14.12826602, "ECCENTRICITY": 0.0151933, "INCLINATION": 74.0116, "RA_OF_ASC_NODE": 161.6553, "ARG_OF_PERICENTER": 300.4832, "MEAN_ANOMALY": 58.1378, "EPHEMERIS_TYPE": 0, "CLASSIFICATION_TYPE": "U", "NORAD_CAT_ID": 34433, "ELEMENT_SET_NO": 999, "REV_AT_EPOCH": 85896, "BSTAR": 0.0014623, "MEAN_MOTION_DOT": 3.008e-05, "MEAN_MOTION_DDOT": 0}, "tle": {"line1": "1 34433U 93036SA  25342.94843348  .00003008  00000+0  14623-2 0  9995", "line2": "2 34433  74.0116 161.6553 0151933 300.4832  58.1378 14.12826602858967"}}, "geometry": {"type": "Point", "coordinates": [129.44077804065526, -59.48155772327157]}}, {"type": "Feature", "properties": {"norad_id": 34434, "name": "COSMOS 2251 DEB", "group": "cosmos-2251-debris", "lat": -5.600994176153523, "lon": 11.977565321621046, "alt_km": 1117.2375672802782, "timestamp": "2025-12-10T16:57:12.033257+00:00", "meta": {"OBJECT_NAME": "COSMOS 2251 DEB", "OBJECT_ID": "1993-036SB", "EPOCH": "2025-12-10T12:23:00.622752", "MEAN_MOTION": 13.89785212, "ECCENTRICITY": 0.0275463, "INCLINATION": 74.0629, "RA_OF_ASC_NODE": 13.907, "ARG_OF_PERICENTER": 151.755, "MEAN_ANOMALY": 331.4872, "EPHEMERIS_TYPE": 0, "CLASSIFICATION_TYPE": "U", "NORAD_CAT_ID": 34434, "ELEMENT_SET_NO": 999, "REV_AT_EPOCH": 83935, "BSTAR": 0.002717, "MEAN_MOTION_DOT": 4.509e-05, "MEAN_MOTION_DDOT": 0}, "tle": {"line1": "1 34434U 93036SB  25344.51597943  .00004509  00000+0  27170-2 0  9996", "line2": "2 34434  74.0629  13.9070 0275463 151.7550 331.4872 13.89785212839351"}}, "geometry": {"type": "Point", "coordinates": [11.977565321621046, -5.600994176153523]}}, {"type": "Feature", "properties": {"norad_id": 34446, "name": "COSMOS 2251 DEB", "group": "cosmos-2251-debris", "lat": 67.62052167834578, "lon": -162.9257397302873, "alt_km": 723.0177174259215, "timestamp": "2025-12-10T16:57:12.033267+00:00", "meta": {"OBJECT_NAME": "COSMOS 2251 DEB", "OBJECT_ID": "1993-036SP", "EPOCH": "2025-12-10T06:31:24.792672", "MEAN_MOTION": 14.49348632, "ECCENTRICITY": 0.0051273, "INCLINATION": 74.0423, "RA_OF_ASC_NODE": 61.9096, "ARG_OF_PERICENTER": 200.5055, "MEAN_ANOMALY": 159.4049, "EPHEMERIS_TYPE": 0, "CLASSIFICATION_TYPE": "U", "NORAD_CAT_ID": 34446, "ELEMENT_SET_NO": 999, "REV_AT_EPOCH": 88658, "BSTAR": 0.00024286, "MEAN_MOTION_DOT": 9.15e-06, "MEAN_MOTION_DDOT": 0}, "tle": {"line1": "1 34446U 93036SP  25344.27181473  .00000915  00000+0  24286-3 0  9992", "line2": "2 34446  74.0423  61.9096 0051273 200.5055 159.4049 14.49348632886580"}}, "geometry": {"type": "Point", "coordinates": [-162.9257397302873, 67.62052167834578]}}, {"type": "Feature", "properties": {"norad_id": 34449, "name": "COSMOS 2251 DEB", "group": "cosmos-2251-debris", "lat": -70.51488678334113, "lon": 20.639659062991026, "alt_km": 605.9021538956476, "timestamp": "2025-12-10T16:57:12.033277+00:00", "meta": {"OBJECT_NAME": "COSMOS 2251 DEB", "OBJECT_ID": "1993-036SS", "EPOCH": "2025-12-10T07:57:12.945312", "MEAN_MOTION": 14.94640838, "ECCENTRICITY": 0.0023468, "INCLINATION": 74.0327, "RA_OF_ASC_NODE": 75.415, "ARG_OF_PERICENTER": 119.3775, "MEAN_ANOMALY": 304.9921, "EPHEMERIS_TYPE": 0, "CLASSIFICATION_TYPE": "U", "NORAD_CAT_ID": 34449, "ELEMENT_SET_NO": 999, "REV_AT_EPOCH": 88657, "BSTAR": 0.0045598, "MEAN_MOTION_DOT": 0.00050003, "MEAN_MOTION_DDOT": 0}, "tle": {"line1": "1 34449U 93036SS  25344.33139983  .00050003  00000+0  45598-2 0  9992", "line2": "2 34449  74.0327  75.4150 0023468 119.3775 304.9921 14.94640838886576"}}, "geometry": {"type": "Point", "coordinates": [20.639659062991026, -70.51488678334113]}}, {"type": "Feature", "properties": {"norad_id": 34451, "name": "COSMOS 2251 DEB", "group": "cosmos-2251-debris", "lat": -62.60770906182639, "lon": -54.52145365548741, "alt_km": 599.8421616687028, "timestamp": "2025-12-10T16:57:12.033287+00:00", "meta": {"OBJECT_NAME": "COSMOS 2251 DEB", "OBJECT_ID": "1993-036SU", "EPOCH": "2025-12-10T09:25:47.614080", "MEAN_MOTION": 14.95338379, "ECCENTRICITY": 0.0024433, "INCLINATION": 74.0466, "RA_OF_ASC_NODE": 92.6027, "ARG_OF_PERICENTER": 114.1424, "MEAN_ANOMALY": 246.2319, "EPHEMERIS_TYPE": 0, "CLASSIFICATION_TYPE": "U", "NORAD_CAT_ID": 34451, "ELEMENT_SET_NO": 999, "REV_AT_EPOCH": 88600, "BSTAR": 0.0044844, "MEAN_MOTION_DOT": 0.00050081, "MEAN_MOTION_DDOT": 0}, "tle": {"line1": "1 34451U 93036SU  25344.39291220  .00050081  00000+0  44844-2 0  9993", "line2": "2 34451  74.0466  92.6027 0024433 114.1424 246.2319 14.95338379886006"}}, "geometry": {"type": "Point", "coordinates": [-54.52145365548741, -62.60770906182639]}}, {"type": "Feature", "properties": {"norad_id": 34452, "name": "COSMOS 2251 DEB", "group": "cosmos-2251-debris", "lat": -36.98076842649359, "lon": 19.476541850213675, "alt_km": 504.78608992586305, "timestamp": "2025-12-10T16:57:12.033297+00:00", "meta": {"OBJECT_NAME": "COSMOS 2251 DEB", "OBJECT_ID": "1993-036SV", "EPOCH": "2025-12-10T12:55:23.712096", "MEAN_MOTION": 15.11584475, "ECCENTRICITY": 0.0066631, "INCLINATION": 74.0361, "RA_OF_ASC_NODE": 187.3753, "ARG_OF_PERICENTER": 264.1998, "MEAN_ANOMALY": 121.5933, "EPHEMERIS_TYPE": 0, "CLASSIFICATION_TYPE": "U", "NORAD_CAT_ID": 34452, "ELEMENT_SET_NO": 999, "REV_AT_EPOCH": 90629, "BSTAR": 0.001077, "MEAN_MOTION_DOT": 0.00019298, "MEAN_MOTION_DDOT": 0}, "tle": {"line1": "1 34452U 93036SV  25344.53846889  .00019298  00000+0  10770-2 0  9993", "line2": "2 34452  74.0361 187.3753 0066631 264.1998 121.5933 15.11584475906297"}}, "geometry": {"type": "Point", "coordinates": [19.476541850213675, -36.98076842649359]}}, {"type": "Feature", "properties": {"norad_id": 34453, "name": "COSMOS 2251 DEB", "group": "cosmos-2251-debris", "lat": -55.06830816579801, "lon": 79.7730534227957, "alt_km": 331.2680561008183, "timestamp": "2025-12-10T16:57:12.033307+00:00", "meta": {"OBJECT_NAME": "COSMOS 2251 DEB", "OBJECT_ID": "1993-036SW", "EPOCH": "2025-12-10T09:35:17.168928", "MEAN_MOTION": 15.76475254, "ECCENTRICITY": 0.0022788, "INCLINATION": 74.108, "RA_OF_ASC_NODE": 104.546, "ARG_OF_PERICENTER": 343.9244, "MEAN_ANOMALY": 16.1257, "EPHEMERIS_TYPE": 0, "CLASSIFICATION_TYPE": "U", "NORAD_CAT_ID": 34453, "ELEMENT_SET_NO": 999, "REV_AT_EPOCH": 88830, "BSTAR": 0.014973, "MEAN_MOTION_DOT": 0.02764348, "MEAN_MOTION_DDOT": 0}, "tle": {"line1": "1 34453U 93036SW  25344.39950427  .02764348  00000+0  14973-1 0  9995", "line2": "2 34453  74.1080 104.5460 0022788 343.9244  16.1257 15.76475254888302"}}, "geometry": {"type": "Point", "coordinates": [79.7730534227957, -55.06830816579801]}}, {"type": "Feature", "properties": {"norad_id": 34454, "name": "COSMOS 2251 DEB", "group": "cosmos-2251-debris", "lat": 61.619505192936195, "lon": -46.676784802592444, "alt_km": 752.4785680952909, "timestamp": "2025-12-10T16:57:12.033317+00:00", "meta": {"OBJECT_NAME": "COSMOS 2251 DEB", "OBJECT_ID": "1993-036SX", "EPOCH": "2025-12-10T06:38:08.827584", "MEAN_MOTION": 14.38802341, "ECCENTRICITY": 0.0035503, "INCLINATION": 74.0587, "RA_OF_ASC_NODE": 282.1735, "ARG_OF_PERICENTER": 345.1749, "MEAN_ANOMALY": 14.8361, "EPHEMERIS_TYPE": 0, "CLASSIFICATION_TYPE": "U", "NORAD_CAT_ID": 34454, "ELEMENT_SET_NO": 999, "REV_AT_EPOCH": 88032, "BSTAR": 0.00044982, "MEAN_MOTION_DOT": 1.367e-05, "MEAN_MOTION_DDOT": 0}, "tle": {"line1": "1 34454U 93036SX  25344.27649106  .00001367  00000+0  44982-3 0  9990", "line2": "2 34454  74.0587 282.1735 0035503 345.1749  14.8361 14.38802341880328"}}, "geometry": {"type": "Point", "coordinates": [-46.676784802592444, 61.619505192936195]}}, {"type": "Feature", "properties": {"norad_id": 34459, "name": "COSMOS 2251 DEB", "group": "cosmos-2251-debris", "lat": -14.647923476665351, "lon": -106.71539415878912, "alt_km": 762.6316214924454, "timestamp": "2025-12-10T16:57:12.033327+00:00", "meta": {"OBJECT_NAME": "COSMOS 2251 DEB", "OBJECT_ID": "1993-036TC", "EPOCH": "2025-12-10T11:52:49.679616", "MEAN_MOTION": 14.00493882, "ECCENTRICITY": 0.0192048, "INCLINATION": 74.0793, "RA_OF_ASC_NODE": 257.9282, "ARG_OF_PERICENTER": 328.2162, "MEAN_ANOMALY": 30.7491, "EPHEMERIS_TYPE": 0, "CLASSIFICATION_TYPE": "U", "NORAD_CAT_ID": 34459, "ELEMENT_SET_NO": 999, "REV_AT_EPOCH": 85680, "BSTAR": 0.00081244, "MEAN_MOTION_DOT": 1.39e-05, "MEAN_MOTION_DDOT": 0}, "tle": {"line1": "1 34459U 93036TC  25344.49501944  .00001390  00000+0  81244-3 0  9994", "line2": "2 34459  74.0793 257.9282 0192048 328.2162  30.7491 14.00493882856800"}}, "geometry": {"type": "Point", "coordinates": [-106.71539415878912, -14.647923476665351]}}]}